[{"OBJECT_NAME":"STARLINK-32382","OBJECT_ID":"2024-175R","EPOCH":"2026-03-09T13:34:44.591232","MEAN_MOTION":15.30201487,"ECCENTRICITY":0.0001075,"INCLINATION":53.1598,"RA_OF_ASC_NODE":194.6837,"ARG_OF_PERICENTER":81.8402,"MEAN_ANOMALY":278.272,"EPHEMERIS_TYPE":0,"CLASSIFICATION_TYPE":"U","NORAD_CAT_ID":61258,"ELEMENT_SET_NO":999,"REV_AT_EPOCH":8143,"BSTAR":-3.4919e-5,"MEAN_MOTION_DOT":-1.393e-5,"MEAN_MOTION_DDOT":0},{"OBJECT_NAME":"CERISE","OBJECT_ID":"1995-033B","EPOCH":"2026-03-09T23:11:27.589056","MEAN_MOTION":15.32047731,"ECCENTRICITY":0.00057118,"INCLINATION":98.325,"RA_OF_ASC_NODE":273.5192,"ARG_OF_PERICENTER":211.8754,"MEAN_ANOMALY":148.214,"EPHEMERIS_TYPE":0,"CLASSIFICATION_TYPE":"U","NORAD_CAT_ID":23606,"ELEMENT_SET_NO":999,"REV_AT_EPOCH":66468,"BSTAR":0.00062940675,"MEAN_MOTION_DOT":0.00019422,"MEAN_MOTION_DDOT":0}]
